ORBCOMM FM115           
1 41186U 15081H   25299.27528454  .00001037  00000+0  23545-3 0  9991
2 41186  46.9969 135.9885 0001218 288.1931  71.8824 14.62775805526961
ORBCOMM FM108           
1 41187U 15081J   25299.17079004  .00001471  00000+0  35049-3 0  9997
2 41187  47.0033 208.2868 0002337 209.9853 150.0899 14.58436343525910
ORBCOMM FM117           
1 41188U 15081K   25299.13707841  .00001438  00000+0  34350-3 0  9998
2 41188  47.0008 207.1652 0002956 218.4241 141.6435 14.58437127525952
ORBCOMM FM116           
1 41189U 15081L   25299.25654974  .00001275  00000+0  30807-3 0  9992
2 41189  47.0024 296.3915 0001493   7.6994 352.3914 14.58510410524781
